BEAK                    
1 58612U 98067WD  24125.39780484  .00106589  00000+0  68921-3 0  9996
2 58612  51.6314 161.4494 0006073  29.4022 330.7318 15.75231468 21637
